OBJECT_NAME,OBJECT_ID,EPOCH,MEAN_MOTION,ECCENTRICITY,INCLINATION,RA_OF_ASC_NODE,ARG_OF_PERICENTER,MEAN_ANOMALY,EPHEMERIS_TYPE,CLASSIFICATION_TYPE,NORAD_CAT_ID,ELEMENT_SET_NO,REV_AT_EPOCH,BSTAR,MEAN_MOTION_DOT,MEAN_MOTION_DDOT
SL-14 R/B,1990-018B,2026-06-07T16:41:08.215008,14.82210293,.0016846,82.5203,138.9796,151.1044,209.1107,0,U,20511,999,93591,.55172E-4,.464E-5,0
HST,1990-037B,2026-06-07T07:09:32.201568,15.30642118,.0001938,28.4712,148.1547,44.7656,315.3096,0,U,20580,999,78705,.18954E-3,.601E-4,0
SL-16 R/B,1990-046B,2026-06-07T06:19:22.874016,14.15020867,.0014112,70.9980,109.7893,176.7889,183.3327,0,U,20625,999,86106,.17296E-3,.288E-5,0
COSMOS 2084,1990-055A,2026-06-07T18:23:20.754816,15.06078390,.000555,62.7910,28.2454,261.3843,98.6629,0,U,20663,999,94988,.17441E-3,.236E-4,0
SL-6 R/B(2),1990-055D,2026-06-07T17:47:03.607872,15.03972435,.003915,62.7839,307.5199,3.8588,356.2805,0,U,20666,999,95173,.16347E-3,.2098E-4,0
SL-8 R/B,1990-078B,2026-06-07T17:45:19.480320,14.91965729,.0352861,82.9016,170.1778,70.2562,293.6350,0,U,20775,999,82271,.4684E-3,.1664E-3,0
SL-8 R/B,1991-006B,2026-06-07T15:26:14.819712,13.77505182,.0023273,82.9418,103.1333,140.0417,33.1214,0,U,21088,999,77645,.36956E-4,.52E-6,0
OKEAN-3,1991-039A,2026-06-07T16:47:06.736128,15.05286351,.0014658,82.5164,249.5817,30.9314,329.2773,0,U,21397,999,87857,.17629E-3,.2553E-4,0
COSMOS 2151,1991-042A,2026-06-07T18:57:25.067808,15.00412971,.0013705,82.4962,356.7508,112.0843,248.1838,0,U,21422,999,87670,.12416E-3,.159E-4,0
SL-14 R/B,1991-042B,2026-06-07T10:18:45.057888,14.81896532,.0015764,82.4922,136.0460,309.9326,50.0502,0,U,21423,999,86636,.56179E-4,.468E-5,0
ERS-1,1991-050A,2026-06-07T15:24:52.159968,14.39511368,.0030805,98.7800,179.1070,296.4364,63.3663,0,U,21574,999,82867,.11326E-3,.308E-5,0
ARIANE 40 R/B,1991-050F,2026-06-07T18:10:12.597600,14.42951761,.0003834,98.1878,207.5408,141.9381,218.2081,0,U,21610,999,83198,.10917E-3,.324E-5,0
INTERCOSMOS 25,1991-086A,2026-06-07T16:52:09.713280,12.12185559,.1484374,82.6057,255.5489,282.8721,61.1060,0,U,21819,999,50759,.14669E-3,.737E-5,0
SL-8 R/B,1992-008B,2026-06-07T20:10:52.423392,13.75974352,.0033361,82.9268,200.7365,241.6547,292.2473,0,U,21876,999,72181,.54351E-4,.68E-6,0
SL-8 R/B,1992-020B,2026-06-07T17:51:15.361920,13.75547977,.0030238,82.9304,86.8711,48.1505,15.4143,0,U,21938,999,71351,.5129E-4,.65E-6,0
USA 81,1992-023A,2026-06-07T18:35:07.460160,14.32395767,.0002733,85.0077,79.4397,93.0830,267.0675,0,U,21949,999,10768,.63992E-4,.193E-5,0
COSMOS 2219,1992-076A,2026-06-07T18:46:48.456192,14.14095555,.0016165,71.0577,189.7329,59.5037,300.7679,0,U,22219,999,73111,.34298E-5,-.4E-6,0
SL-16 R/B,1992-076B,2026-06-07T20:13:08.580288,14.16872147,.0014456,71.0007,358.4674,310.8965,61.5374,0,U,22220,999,73460,-.7876E-4,-.206E-5,0
COSMOS 2221,1992-080A,2026-06-07T13:51:39.634848,14.96510466,.0012652,82.5035,192.9713,247.6707,112.3174,0,U,22236,999,79423,.14442E-3,.1668E-4,0
SL-16 R/B,1992-093B,2026-06-07T18:32:44.855232,14.15464909,.0004473,71.0201,175.1551,201.6574,158.4360,0,U,22285,999,72590,-.27641E-4,-.102E-5,0
COSMOS 2228,1992-094A,2026-06-07T17:36:03.977568,14.97554184,.0017838,82.5170,151.0982,4.8068,355.3323,0,U,22286,999,78953,.23088E-3,.2728E-4,0
SL-16 R/B,1993-016B,2026-06-07T18:02:36.659616,14.15308809,.0010846,71.0079,26.0256,197.2164,162.8592,0,U,22566,999,71491,.60447E-4,.7E-6,0
COSMOS 2242,1993-024A,2026-06-07T13:18:57.536640,14.96876178,.0016321,82.5180,180.7584,9.2684,350.8836,0,U,22626,999,79383,.16422E-3,.1914E-4,0
SL-16 R/B,1993-059B,2026-06-07T19:41:22.699968,14.17244214,.0014997,70.9883,181.0570,70.3985,289.8756,0,U,22803,999,69230,.11826E-3,.191E-5,0
ARIANE 40 R/B,1993-061H,2026-06-07T17:00:36.432000,14.32904163,.0011066,98.4820,225.7625,24.1481,336.0220,0,U,22830,999,70699,.10392E-3,.241E-5,0
COSMOS 2278,1994-023A,2026-06-07T18:28:53.348160,14.14392547,.001061,71.0541,346.6292,253.8634,106.1321,0,U,23087,999,65754,.22899E-3,.391E-5,0
SL-16 R/B,1994-023B,2026-06-07T15:13:52.006080,14.15019245,.0003375,70.9996,241.9922,196.7573,163.3438,0,U,23088,999,65881,.11321E-3,.172E-5,0
SL-16 R/B,1994-074B,2026-06-07T20:02:44.270304,14.79494644,.0005186,97.6994,185.9455,293.0183,240.4996,0,U,23343,999,70057,.69243E-4,.468E-5,0
SL-16 R/B,1994-077B,2026-06-07T17:20:18.662208,14.15573651,.0002619,70.9805,163.0749,333.2544,26.8444,0,U,23405,999,62897,-.12291E-3,-.288E-5,0
ARIANE 40+ R/B,1995-021B,2026-06-07T18:03:28.878912,14.39828540,.0005854,98.4411,228.9633,224.2386,249.2458,0,U,23561,999,63220,.11375E-3,.313E-5,0
SL-16 R/B,1995-058B,2026-06-07T19:18:24.154272,14.15505231,.0013385,71.0215,351.0590,333.1367,26.9062,0,U,23705,999,58060,-.25487E-4,-.97E-6,0
