SL-14 R/B               
1 20511U 90018B   26158.69523397  .00000464  00000+0  55172-4 0  9990
2 20511  82.5203 138.9796 0016846 151.1044 209.1107 14.82210293935914
HST                     
1 20580U 90037B   26158.29828937  .00006010  00000+0  18954-3 0  9990
2 20580  28.4712 148.1547 0001938  44.7656 315.3096 15.30642118787059
SL-16 R/B               
1 20625U 90046B   26158.26345919  .00000288  00000+0  17296-3 0  9990
2 20625  70.9980 109.7893 0014112 176.7889 183.3327 14.15020867861064
COSMOS 2084             
1 20663U 90055A   26158.76621244  .00002360  00000+0  17441-3 0  9990
2 20663  62.7910  28.2454 0005550 261.3843  98.6629 15.06078390949888
SL-6 R/B(2)             
1 20666U 90055D   26158.74101398  .00002098  00000+0  16347-3 0  9996
2 20666  62.7839 307.5199 0039150   3.8588 356.2805 15.03972435951734
SL-8 R/B                
1 20775U 90078B   26158.73980880  .00016640  00000+0  46840-3 0  9991
2 20775  82.9016 170.1778 0352861  70.2562 293.6350 14.91965729822718
SL-8 R/B                
1 21088U 91006B   26158.64322708  .00000052  00000+0  36956-4 0  9998
2 21088  82.9418 103.1333 0023273 140.0417  33.1214 13.77505182776453
OKEAN-3                 
1 21397U 91039A   26158.69938352  .00002553  00000+0  17629-3 0  9993
2 21397  82.5164 249.5817 0014658  30.9314 329.2773 15.05286351878574
COSMOS 2151             
1 21422U 91042A   26158.78987347  .00001590  00000+0  12416-3 0  9993
2 21422  82.4962 356.7508 0013705 112.0843 248.1838 15.00412971876705
SL-14 R/B               
1 21423U 91042B   26158.42968817  .00000468  00000+0  56179-4 0  9994
2 21423  82.4922 136.0460 0015764 309.9326  50.0502 14.81896532866364
ERS-1                   
1 21574U 91050A   26158.64227037  .00000308  00000+0  11326-3 0  9993
2 21574  98.7800 179.1070 0030805 296.4364  63.3663 14.39511368828677
ARIANE 40 R/B           
1 21610U 91050F   26158.75709025  .00000324  00000+0  10917-3 0  9991
2 21610  98.1878 207.5408 0003834 141.9381 218.2081 14.42951761831985
INTERCOSMOS 25          
1 21819U 91086A   26158.70289020  .00000737  00000+0  14669-3 0  9990
2 21819  82.6057 255.5489 1484374 282.8721  61.1060 12.12185559507599
SL-8 R/B                
1 21876U 92008B   26158.84088453  .00000068  00000+0  54351-4 0  9990
2 21876  82.9268 200.7365 0033361 241.6547 292.2473 13.75974352721813
SL-8 R/B                
1 21938U 92020B   26158.74392780  .00000065  00000+0  51290-4 0  9999
2 21938  82.9304  86.8711 0030238  48.1505  15.4143 13.75547977713511
USA 81                  
1 21949U 92023A   26158.77439190  .00000193  00000+0  63992-4 0  9998
2 21949  85.0077  79.4397 0002733  93.0830 267.0675 14.32395767107683
COSMOS 2219             
1 22219U 92076A   26158.78250528 -.00000040  00000+0  34298-5 0  9994
2 22219  71.0577 189.7329 0016165  59.5037 300.7679 14.14095555731116
SL-16 R/B               
1 22220U 92076B   26158.84246042 -.00000206  00000+0 -78760-4 0  9995
2 22220  71.0007 358.4674 0014456 310.8965  61.5374 14.16872147734601
COSMOS 2221             
1 22236U 92080A   26158.57754207  .00001668  00000+0  14442-3 0  9991
2 22236  82.5035 192.9713 0012652 247.6707 112.3174 14.96510466794237
SL-16 R/B               
1 22285U 92093B   26158.77274138 -.00000102  00000+0 -27641-4 0  9991
2 22285  71.0201 175.1551 0004473 201.6574 158.4360 14.15464909725903
COSMOS 2228             
1 22286U 92094A   26158.73337937  .00002728  00000+0  23088-3 0  9990
2 22286  82.5170 151.0982 0017838   4.8068 355.3323 14.97554184789538
SL-16 R/B               
1 22566U 93016B   26158.75181319  .00000070  00000+0  60447-4 0  9998
2 22566  71.0079  26.0256 0010846 197.2164 162.8592 14.15308809714911
COSMOS 2242             
1 22626U 93024A   26158.55483260  .00001914  00000+0  16422-3 0  9993
2 22626  82.5180 180.7584 0016321   9.2684 350.8836 14.96876178793839
SL-16 R/B               
1 22803U 93059B   26158.82040162  .00000191  00000+0  11826-3 0  9997
2 22803  70.9883 181.0570 0014997  70.3985 289.8756 14.17244214692301
ARIANE 40 R/B           
1 22830U 93061H   26158.70875500  .00000241  00000+0  10392-3 0  9992
2 22830  98.4820 225.7625 0011066  24.1481 336.0220 14.32904163706991
COSMOS 2278             
1 23087U 94023A   26158.77006190  .00000391  00000+0  22899-3 0  9995
2 23087  71.0541 346.6292 0010610 253.8634 106.1321 14.14392547657542
SL-16 R/B               
1 23088U 94023B   26158.63462970  .00000172  00000+0  11321-3 0  9998
2 23088  70.9996 241.9922 0003375 196.7573 163.3438 14.15019245658816
SL-16 R/B               
1 23343U 94074B   26158.83523461  .00000468  00000+0  69243-4 0  9998
2 23343  97.6994 185.9455 0005186 293.0183 240.4996 14.79494644700579
SL-16 R/B               
1 23405U 94077B   26158.72243822 -.00000288  00000+0 -12291-3 0  9990
2 23405  70.9805 163.0749 0002619 333.2544  26.8444 14.15573651628975
ARIANE 40+ R/B          
1 23561U 95021B   26158.75241758  .00000313  00000+0  11375-3 0  9991
2 23561  98.4411 228.9633 0005854 224.2386 249.2458 14.39828540632209
SL-16 R/B               
1 23705U 95058B   26158.80444623 -.00000097  00000+0 -25487-4 0  9994
2 23705  71.0215 351.0590 0013385 333.1367  26.9062 14.15505231580605
